STARLINK-36073          
1 66844U 25280Z   25357.16862543  .00104142  00000+0  16713-2 0  9993
2 66844  70.0003 169.7999 0003232 272.7149  87.3668 15.52554200  4520
STARLINK-36068          
1 66845U 25280AA  25357.10282545  .00103760  00000+0  16658-2 0  9999
2 66845  70.0007 169.9714 0003138 283.1913  76.8924 15.52545165  4542
STARLINK-36055          
1 66846U 25280AB  25357.16793738  .00060058  00000+0  97012-3 0  9993
2 66846  70.0004 169.7971 0003208 272.3842  87.6978 15.52561321  4554
STARLINK-36061          
1 66847U 25280AC  25357.16759679  .00077758  00000+0  12542-2 0  9999
2 66847  70.0006 169.7956 0003099 273.9326  86.1506 15.52521471  4555
STARLINK-36091          
1 66848U 25281A   25357.25001157 -.01964319  00000+0 -23976-1 0  9995
2 66848  43.0005  58.3515 0000827 278.0862 256.6827 15.62915334  3078
STARLINK-36102          
1 66849U 25281B   25357.25001157 -.01968984  00000+0 -24038-1 0  9998
2 66849  43.0001  58.3463 0000827 274.4851 262.2008 15.62917625  3074
STARLINK-36105          
1 66850U 25281C   25357.25001157 -.01966179  00000+0 -24002-1 0  9995
2 66850  43.0002  58.3416 0000772 273.6808 264.9233 15.62915760  3085
STARLINK-36094          
1 66851U 25281D   25357.25001157 -.01973713  00000+0 -24101-1 0  9998
2 66851  43.0004  58.3368 0000748 280.1161 260.4006 15.62921516  3087
STARLINK-35992          
1 66852U 25281E   25357.25001157 -.01962286  00000+0 -23948-1 0  9990
2 66852  43.0002  58.3325 0000811 279.1091 263.3262 15.62914687  3087
STARLINK-35986          
1 66853U 25281F   25357.25001157 -.01960738  00000+0 -23926-1 0  9997
2 66853  43.0000  58.3276 0000850 281.3806 262.9690 15.62915180  3082
STARLINK-36087          
1 66854U 25281G   25357.25001157 -.01957688  00000+0 -23885-1 0  9992
2 66854  43.0000  58.3224 0000892 277.9210 268.3472 15.62913484  3085
STARLINK-36090          
1 66855U 25281H   25357.25001157 -.01953980  00000+0 -23835-1 0  9999
2 66855  43.0001  58.3177 0000781 274.6311 273.5538 15.62912407  2957
