CCSDS_OMM_VERS = 2.0
CREATION_DATE  = 
ORIGINATOR     = 

OBJECT_NAME    = STARLINK-36073
OBJECT_ID      = 2025-280Z
CENTER_NAME    = EARTH
REF_FRAME      = TEME
TIME_SYSTEM    = UTC
MEAN_ELEMENT_THEORY = SGP/SGP4

EPOCH          = 2025-12-23T04:02:49.237152
MEAN_MOTION    = 15.52554200
ECCENTRICITY   = .00032328
INCLINATION    = 70.0003
RA_OF_ASC_NODE = 169.7999
ARG_OF_PERICENTER = 272.7149
MEAN_ANOMALY   = 87.3668

EPHEMERIS_TYPE = 0
CLASSIFICATION_TYPE = U
NORAD_CAT_ID   = 66844
ELEMENT_SET_NO = 999
REV_AT_EPOCH   = 452
BSTAR          = .16713278E-2
MEAN_MOTION_DOT = .104142E-2
MEAN_MOTION_DDOT = 0

CCSDS_OMM_VERS = 2.0
CREATION_DATE  = 
ORIGINATOR     = 

OBJECT_NAME    = STARLINK-36068
OBJECT_ID      = 2025-280AA
CENTER_NAME    = EARTH
REF_FRAME      = TEME
TIME_SYSTEM    = UTC
MEAN_ELEMENT_THEORY = SGP/SGP4

EPOCH          = 2025-12-23T02:28:04.118880
MEAN_MOTION    = 15.52545165
ECCENTRICITY   = .00031388
INCLINATION    = 70.0007
RA_OF_ASC_NODE = 169.9714
ARG_OF_PERICENTER = 283.1913
MEAN_ANOMALY   = 76.8924

EPHEMERIS_TYPE = 0
CLASSIFICATION_TYPE = U
NORAD_CAT_ID   = 66845
ELEMENT_SET_NO = 999
REV_AT_EPOCH   = 454
BSTAR          = .16658485E-2
MEAN_MOTION_DOT = .10376E-2
MEAN_MOTION_DDOT = 0

CCSDS_OMM_VERS = 2.0
CREATION_DATE  = 
ORIGINATOR     = 

OBJECT_NAME    = STARLINK-36055
OBJECT_ID      = 2025-280AB
CENTER_NAME    = EARTH
REF_FRAME      = TEME
TIME_SYSTEM    = UTC
MEAN_ELEMENT_THEORY = SGP/SGP4

EPOCH          = 2025-12-23T04:01:49.789632
MEAN_MOTION    = 15.52561321
ECCENTRICITY   = .00032088
INCLINATION    = 70.0004
RA_OF_ASC_NODE = 169.7971
ARG_OF_PERICENTER = 272.3842
MEAN_ANOMALY   = 87.6978

EPHEMERIS_TYPE = 0
CLASSIFICATION_TYPE = U
NORAD_CAT_ID   = 66846
ELEMENT_SET_NO = 999
REV_AT_EPOCH   = 455
BSTAR          = .97011604E-3
MEAN_MOTION_DOT = .60058E-3
MEAN_MOTION_DDOT = 0

CCSDS_OMM_VERS = 2.0
CREATION_DATE  = 
ORIGINATOR     = 

OBJECT_NAME    = STARLINK-36061
OBJECT_ID      = 2025-280AC
CENTER_NAME    = EARTH
REF_FRAME      = TEME
TIME_SYSTEM    = UTC
MEAN_ELEMENT_THEORY = SGP/SGP4

EPOCH          = 2025-12-23T04:01:20.362656
MEAN_MOTION    = 15.52521471
ECCENTRICITY   = .00030999
INCLINATION    = 70.0006
RA_OF_ASC_NODE = 169.7956
ARG_OF_PERICENTER = 273.9326
MEAN_ANOMALY   = 86.1506

EPHEMERIS_TYPE = 0
CLASSIFICATION_TYPE = U
NORAD_CAT_ID   = 66847
ELEMENT_SET_NO = 999
REV_AT_EPOCH   = 455
BSTAR          = .12542354E-2
MEAN_MOTION_DOT = .77758E-3
MEAN_MOTION_DDOT = 0

CCSDS_OMM_VERS = 2.0
CREATION_DATE  = 
ORIGINATOR     = 

OBJECT_NAME    = STARLINK-36091
OBJECT_ID      = 2025-281A
CENTER_NAME    = EARTH
REF_FRAME      = TEME
TIME_SYSTEM    = UTC
MEAN_ELEMENT_THEORY = SGP/SGP4

EPOCH          = 2025-12-23T06:00:00.999648
MEAN_MOTION    = 15.62915334
ECCENTRICITY   = .00008274
INCLINATION    = 43.0005
RA_OF_ASC_NODE = 58.3515
ARG_OF_PERICENTER = 278.0862
MEAN_ANOMALY   = 256.6827

EPHEMERIS_TYPE = 0
CLASSIFICATION_TYPE = U
NORAD_CAT_ID   = 66848
ELEMENT_SET_NO = 999
REV_AT_EPOCH   = 307
BSTAR          = -.23975658E-1
MEAN_MOTION_DOT = -.1964319E-1
MEAN_MOTION_DDOT = 0

CCSDS_OMM_VERS = 2.0
CREATION_DATE  = 
ORIGINATOR     = 

OBJECT_NAME    = STARLINK-36102
OBJECT_ID      = 2025-281B
CENTER_NAME    = EARTH
REF_FRAME      = TEME
TIME_SYSTEM    = UTC
MEAN_ELEMENT_THEORY = SGP/SGP4

EPOCH          = 2025-12-23T06:00:00.999648
MEAN_MOTION    = 15.62917625
ECCENTRICITY   = .00008277
INCLINATION    = 43.0001
RA_OF_ASC_NODE = 58.3463
ARG_OF_PERICENTER = 274.4851
MEAN_ANOMALY   = 262.2008

EPHEMERIS_TYPE = 0
CLASSIFICATION_TYPE = U
NORAD_CAT_ID   = 66849
ELEMENT_SET_NO = 999
REV_AT_EPOCH   = 307
BSTAR          = -.24038233E-1
MEAN_MOTION_DOT = -.1968984E-1
MEAN_MOTION_DDOT = 0

CCSDS_OMM_VERS = 2.0
CREATION_DATE  = 
ORIGINATOR     = 

OBJECT_NAME    = STARLINK-36105
OBJECT_ID      = 2025-281C
CENTER_NAME    = EARTH
REF_FRAME      = TEME
TIME_SYSTEM    = UTC
MEAN_ELEMENT_THEORY = SGP/SGP4

EPOCH          = 2025-12-23T06:00:00.999648
MEAN_MOTION    = 15.62915760
ECCENTRICITY   = .00007729
INCLINATION    = 43.0002
RA_OF_ASC_NODE = 58.3416
ARG_OF_PERICENTER = 273.6808
MEAN_ANOMALY   = 264.9233

EPHEMERIS_TYPE = 0
CLASSIFICATION_TYPE = U
NORAD_CAT_ID   = 66850
ELEMENT_SET_NO = 999
REV_AT_EPOCH   = 308
BSTAR          = -.24001582E-1
MEAN_MOTION_DOT = -.1966179E-1
MEAN_MOTION_DDOT = 0

CCSDS_OMM_VERS = 2.0
CREATION_DATE  = 
ORIGINATOR     = 

OBJECT_NAME    = STARLINK-36094
OBJECT_ID      = 2025-281D
CENTER_NAME    = EARTH
REF_FRAME      = TEME
TIME_SYSTEM    = UTC
MEAN_ELEMENT_THEORY = SGP/SGP4

EPOCH          = 2025-12-23T06:00:00.999648
MEAN_MOTION    = 15.62921516
ECCENTRICITY   = .00007485
INCLINATION    = 43.0004
RA_OF_ASC_NODE = 58.3368
ARG_OF_PERICENTER = 280.1161
MEAN_ANOMALY   = 260.4006

EPHEMERIS_TYPE = 0
CLASSIFICATION_TYPE = U
NORAD_CAT_ID   = 66851
ELEMENT_SET_NO = 999
REV_AT_EPOCH   = 308
BSTAR          = -.24100979E-1
MEAN_MOTION_DOT = -.1973713E-1
MEAN_MOTION_DDOT = 0

CCSDS_OMM_VERS = 2.0
CREATION_DATE  = 
ORIGINATOR     = 

OBJECT_NAME    = STARLINK-35992
OBJECT_ID      = 2025-281E
CENTER_NAME    = EARTH
REF_FRAME      = TEME
TIME_SYSTEM    = UTC
MEAN_ELEMENT_THEORY = SGP/SGP4

EPOCH          = 2025-12-23T06:00:00.999648
MEAN_MOTION    = 15.62914687
ECCENTRICITY   = .00008113
INCLINATION    = 43.0002
RA_OF_ASC_NODE = 58.3325
ARG_OF_PERICENTER = 279.1091
MEAN_ANOMALY   = 263.3262

EPHEMERIS_TYPE = 0
CLASSIFICATION_TYPE = U
NORAD_CAT_ID   = 66852
ELEMENT_SET_NO = 999
REV_AT_EPOCH   = 308
BSTAR          = -.2394821E-1
MEAN_MOTION_DOT = -.1962286E-1
MEAN_MOTION_DDOT = 0

CCSDS_OMM_VERS = 2.0
CREATION_DATE  = 
ORIGINATOR     = 

OBJECT_NAME    = STARLINK-35986
OBJECT_ID      = 2025-281F
CENTER_NAME    = EARTH
REF_FRAME      = TEME
TIME_SYSTEM    = UTC
MEAN_ELEMENT_THEORY = SGP/SGP4

EPOCH          = 2025-12-23T06:00:00.999648
MEAN_MOTION    = 15.62915180
ECCENTRICITY   = .00008506
INCLINATION    = 43.0000
RA_OF_ASC_NODE = 58.3276
ARG_OF_PERICENTER = 281.3806
MEAN_ANOMALY   = 262.9690

EPHEMERIS_TYPE = 0
CLASSIFICATION_TYPE = U
NORAD_CAT_ID   = 66853
ELEMENT_SET_NO = 999
REV_AT_EPOCH   = 308
BSTAR          = -.23925894E-1
MEAN_MOTION_DOT = -.1960738E-1
MEAN_MOTION_DDOT = 0

CCSDS_OMM_VERS = 2.0
CREATION_DATE  = 
ORIGINATOR     = 

OBJECT_NAME    = STARLINK-36087
OBJECT_ID      = 2025-281G
CENTER_NAME    = EARTH
REF_FRAME      = TEME
TIME_SYSTEM    = UTC
MEAN_ELEMENT_THEORY = SGP/SGP4

EPOCH          = 2025-12-23T06:00:00.999648
MEAN_MOTION    = 15.62913484
ECCENTRICITY   = .00008929
INCLINATION    = 43.0000
RA_OF_ASC_NODE = 58.3224
ARG_OF_PERICENTER = 277.9210
MEAN_ANOMALY   = 268.3472

EPHEMERIS_TYPE = 0
CLASSIFICATION_TYPE = U
NORAD_CAT_ID   = 66854
ELEMENT_SET_NO = 999
REV_AT_EPOCH   = 308
BSTAR          = -.23884802E-1
MEAN_MOTION_DOT = -.1957688E-1
MEAN_MOTION_DDOT = 0

CCSDS_OMM_VERS = 2.0
CREATION_DATE  = 
ORIGINATOR     = 

OBJECT_NAME    = STARLINK-36090
OBJECT_ID      = 2025-281H
CENTER_NAME    = EARTH
REF_FRAME      = TEME
TIME_SYSTEM    = UTC
MEAN_ELEMENT_THEORY = SGP/SGP4

EPOCH          = 2025-12-23T06:00:00.999648
MEAN_MOTION    = 15.62912407
ECCENTRICITY   = .0000781
INCLINATION    = 43.0001
RA_OF_ASC_NODE = 58.3177
ARG_OF_PERICENTER = 274.6311
MEAN_ANOMALY   = 273.5538

EPHEMERIS_TYPE = 0
CLASSIFICATION_TYPE = U
NORAD_CAT_ID   = 66855
ELEMENT_SET_NO = 999
REV_AT_EPOCH   = 295
BSTAR          = -.23835466E-1
MEAN_MOTION_DOT = -.195398E-1
MEAN_MOTION_DDOT = 0

